49206,ONEWEB-0340,2021,109.2,148.0,+,87.91,Active,1,LEO,Kazakhstan,UK,Commercial,Communications,Soyuz,1 49206U 21083W   25084.47648071  .00000064  00000+0  12840-3 0  9998,2 49206  87.9077  64.6542 0001818  88.9737 271.1603 13.18687774170839,13.18687774,0.0001818,LEO
49207,ONEWEB-0341,2021,109.2,148.0,+,87.91,Active,1,LEO,Kazakhstan,UK,Commercial,Communications,Soyuz,1 49207U 21083X   25084.48439694  .00000071  00000+0  14814-3 0  9990,2 49207  87.9077  64.6631 0001337  77.1615 282.9667 13.18687109170854,13.18687109,0.0001337,LEO
49208,ONEWEB-0342,2021,109.03,148.0,+,87.93,Active,1,LEO,Kazakhstan,UK,Commercial,Communications,Soyuz,1 49208U 21083Y   25084.49187124  .00000122  00000+0  26725-3 0  9991,2 49208  87.9328   3.7563 0001922  75.1367 284.9979 13.20775142177554,13.20775142,0.0001922,LEO
49209,ONEWEB-0343,2021,109.2,148.0,+,87.91,Active,1,LEO,Kazakhstan,UK,Commercial,Communications,Soyuz,1 49209U 21083Z   25084.63138758  .00000097  00000+0  21228-3 0  9991,2 49209  87.9071  64.6244 0001567  68.0239 292.1060 13.18687544172211,13.18687544,0.0001567,LEO
49210,ONEWEB-0344,2021,109.76,148.0,+,87.89,Active,1,LEO,Kazakhstan,UK,Commercial,Communications,Soyuz,1 49210U 21083AA  25084.50001157 -.00040490  00000+0 -11387+0 0  9995,2 49210  87.8947  49.4348 0001567  82.8026 338.4356 13.11964789  4687,13.11964789,0.0001567,LEO
49211,ONEWEB-0345,2021,109.63,148.0,+,87.89,Active,1,LEO,Kazakhstan,UK,Commercial,Communications,Soyuz,1 49211U 21083AB  25083.96831216  .00000485  00000+0  12926-2 0  9993,2 49211  87.8936  49.5067 0001402  83.0263 277.1025 13.13471348171930,13.13471348,0.0001402,LEO
49212,ONEWEB-0346,2021,109.2,148.0,+,87.91,Active,1,LEO,Kazakhstan,UK,Commercial,Communications,Soyuz,1 49212U 21083AC  25084.48913083  .00000121  00000+0  27314-3 0  9990,2 49212  87.9077  64.6716 0001960  99.5795 260.5558 13.18688182170845,13.18688182,0.000196,LEO
49213,ONEWEB-0348,2021,109.03,148.0,+,87.93,Active,1,LEO,Kazakhstan,UK,Commercial,Communications,Soyuz,1 49213U 21083AD  25084.48241026  .00000342  00000+0  81004-3 0  9993,2 49213  87.9337   3.7570 0001408  97.4493 262.6800 13.20769206177587,13.20769206,0.0001408,LEO
